LIN-1 GAOFEN 2D1 49256U 21086A   26080.96773945  .00006982  00000+0  42918-3 0  9990
2 49256  97.6343 203.8890 0035100  83.9870 276.5357 15.09852663247557
